{
  "type": "FeatureCollection",
  "features": [
    {
      "type": "Feature",
      "properties": {
        "norad_id": 22490,
        "name": "SCD 1",
        "group": "resource",
        "lat": -4.0240602711275075,
        "lon": -65.77005673411556,
        "alt_km": 725.6982756342695,
        "timestamp": "2025-12-08T19:31:48.484247+00:00",
        "meta_object_name": "SCD 1",
        "meta_object_id": "1993-009B",
        "meta_epoch": "2025-12-08T04:46:20.891424",
        "meta_mean_motion": 14.45993612,
        "meta_eccentricity": 0.00417282,
        "meta_inclination": 24.9706,
        "meta_ra_of_asc_node": 306.7182,
        "meta_arg_of_pericenter": 276.7262,
        "meta_mean_anomaly": 105.8807,
        "meta_ephemeris_type": 0,
        "meta_classification_type": "U",
        "meta_norad_cat_id": 22490,
        "meta_element_set_no": 999,
        "meta_rev_at_epoch": 73344,
        "meta_bstar": 0.00015229615,
        "meta_mean_motion_dot": 7.43e-06,
        "meta_mean_motion_ddot": 0,
        "tle_line1": "1 22490U 93009B   25342.19885291  .00000743  00000+0  15230-3 0  9994",
        "tle_line2": "2 22490  24.9706 306.7182 0041728 276.7262 105.8807 14.45993612733442"
      },
      "geometry": {
        "type": "Point",
        "coordinates": [
          -65.77005673411556,
          -4.0240602711275075
        ]
      }
    },
    {
      "type": "Feature",
      "properties": {
        "norad_id": 25397,
        "name": "TECHSAT 1B (GO-32)",
        "group": "resource",
        "lat": -28.63782941832977,
        "lon": 140.97509698372394,
        "alt_km": 817.6880772723289,
        "timestamp": "2025-12-08T19:31:48.484280+00:00",
        "meta_object_name": "TECHSAT 1B (GO-32)",
        "meta_object_id": "1998-043D",
        "meta_epoch": "2025-12-07T22:19:18.226848",
        "meta_mean_motion": 14.24374862,
        "meta_eccentricity": 0.00021662,
        "meta_inclination": 98.9914,
        "meta_ra_of_asc_node": 325.0312,
        "meta_arg_of_pericenter": 64.9459,
        "meta_mean_anomaly": 295.1944,
        "meta_ephemeris_type": 0,
        "meta_classification_type": "U",
        "meta_norad_cat_id": 25397,
        "meta_element_set_no": 999,
        "meta_rev_at_epoch": 42410,
        "meta_bstar": 8.8595403e-05,
        "meta_mean_motion_dot": 1.58e-06,
        "meta_mean_motion_ddot": 0,
        "tle_line1": "1 25397U 98043D   25341.93007207  .00000158  00000+0  88595-4 0  9995",
        "tle_line2": "2 25397  98.9914 325.0312 0002166  64.9459 295.1944 14.24374862424102"
      },
      "geometry": {
        "type": "Point",
        "coordinates": [
          140.97509698372394,
          -28.63782941832977
        ]
      }
    },
    {
      "type": "Feature",
      "properties": {
        "norad_id": 25504,
        "name": "SCD 2",
        "group": "resource",
        "lat": 12.344895195945462,
        "lon": -165.87096089038585,
        "alt_km": 742.6348125080358,
        "timestamp": "2025-12-08T19:31:48.484293+00:00",
        "meta_object_name": "SCD 2",
        "meta_object_id": "1998-060A",
        "meta_epoch": "2025-12-07T22:22:24.926016",
        "meta_mean_motion": 14.45418977,
        "meta_eccentricity": 0.00165909,
        "meta_inclination": 24.9932,
        "meta_ra_of_asc_node": 171.541,
        "meta_arg_of_pericenter": 262.1485,
        "meta_mean_anomaly": 211.8207,
        "meta_ephemeris_type": 0,
        "meta_classification_type": "U",
        "meta_norad_cat_id": 25504,
        "meta_element_set_no": 999,
        "meta_rev_at_epoch": 43262,
        "meta_bstar": 0.00011368639,
        "meta_mean_motion_dot": 5.89e-06,
        "meta_mean_motion_ddot": 0,
        "tle_line1": "1 25504U 98060A   25341.93223294  .00000589  00000+0  11369-3 0  9992",
        "tle_line2": "2 25504  24.9932 171.5410 0016590 262.1485 211.8207 14.45418977432623"
      },
      "geometry": {
        "type": "Point",
        "coordinates": [
          -165.87096089038585,
          12.344895195945462
        ]
      }
    },
    {
      "type": "Feature",
      "properties": {
        "norad_id": 25757,
        "name": "DLR-TUBSAT",
        "group": "resource",
        "lat": 31.871416826192934,
        "lon": -38.22847290069149,
        "alt_km": 725.7097826322279,
        "timestamp": "2025-12-08T19:31:48.484322+00:00",
        "meta_object_name": "DLR-TUBSAT",
        "meta_object_id": "1999-029B",
        "meta_epoch": "2025-12-07T21:53:12.091200",
        "meta_mean_motion": 14.52354641,
        "meta_eccentricity": 0.00136293,
        "meta_inclination": 98.6558,
        "meta_ra_of_asc_node": 326.2768,
        "meta_arg_of_pericenter": 207.9079,
        "meta_mean_anomaly": 152.1385,
        "meta_ephemeris_type": 0,
        "meta_classification_type": "U",
        "meta_norad_cat_id": 25757,
        "meta_element_set_no": 999,
        "meta_rev_at_epoch": 40548,
        "meta_bstar": 7.1887537e-05,
        "meta_mean_motion_dot": 2.44e-06,
        "meta_mean_motion_ddot": 0,
        "tle_line1": "1 25757U 99029B   25341.91194550  .00000244  00000+0  71888-4 0  9999",
        "tle_line2": "2 25757  98.6558 326.2768 0013629 207.9079 152.1385 14.52354641405489"
      },
      "geometry": {
        "type": "Point",
        "coordinates": [
          -38.22847290069149,
          31.871416826192934
        ]
      }
    },
    {
      "type": "Feature",
      "properties": {
        "norad_id": 25994,
        "name": "TERRA",
        "group": "resource",
        "lat": -24.629359210395073,
        "lon": 38.3274193343934,
        "alt_km": 697.2881583070393,
        "timestamp": "2025-12-08T19:31:48.484333+00:00",
        "meta_object_name": "TERRA",
        "meta_object_id": "1999-068A",
        "meta_epoch": "2025-12-08T06:47:17.564352",
        "meta_mean_motion": 14.60945303,
        "meta_eccentricity": 0.00035232,
        "meta_inclination": 97.9754,
        "meta_ra_of_asc_node": 34.1308,
        "meta_arg_of_pericenter": 106.7853,
        "meta_mean_anomaly": 317.8521,
        "meta_ephemeris_type": 0,
        "meta_classification_type": "U",
        "meta_norad_cat_id": 25994,
        "meta_element_set_no": 999,
        "meta_rev_at_epoch": 38173,
        "meta_bstar": 0.00021367439,
        "meta_mean_motion_dot": 1.002e-05,
        "meta_mean_motion_ddot": 0,
        "tle_line1": "1 25994U 99068A   25342.28284218  .00001002  00000+0  21367-3 0  9996",
        "tle_line2": "2 25994  97.9754  34.1308 0003523 106.7853 317.8521 14.60945303381738"
      },
      "geometry": {
        "type": "Point",
        "coordinates": [
          38.3274193343934,
          -24.629359210395073
        ]
      }
    },
    {
      "type": "Feature",
      "properties": {
        "norad_id": 27004,
        "name": "MAROC-TUBSAT",
        "group": "resource",
        "lat": 16.943841856496416,
        "lon": -25.794695915468864,
        "alt_km": 1003.3542921075377,
        "timestamp": "2025-12-08T19:31:48.484343+00:00",
        "meta_object_name": "MAROC-TUBSAT",
        "meta_object_id": "2001-056D",
        "meta_epoch": "2025-12-08T05:36:12.688416",
        "meta_mean_motion": 13.70252551,
        "meta_eccentricity": 0.00190832,
        "meta_inclination": 99.7912,
        "meta_ra_of_asc_node": 150.5996,
        "meta_arg_of_pericenter": 272.1195,
        "meta_mean_anomaly": 269.8203,
        "meta_ephemeris_type": 0,
        "meta_classification_type": "U",
        "meta_norad_cat_id": 27004,
        "meta_element_set_no": 999,
        "meta_rev_at_epoch": 20003,
        "meta_bstar": 3.9035772e-05,
        "meta_mean_motion_dot": -1.2e-07,
        "meta_mean_motion_ddot": 0,
        "tle_line1": "1 27004U 01056D   25342.23348019 -.00000012  00000+0  39036-4 0  9999",
        "tle_line2": "2 27004  99.7912 150.5996 0019083 272.1195 269.8203 13.70252551200031"
      },
      "geometry": {
        "type": "Point",
        "coordinates": [
          -25.794695915468864,
          16.943841856496416
        ]
      }
    },
    {
      "type": "Feature",
      "properties": {
        "norad_id": 27424,
        "name": "AQUA",
        "group": "resource",
        "lat": -17.366202875299102,
        "lon": 120.97939559824947,
        "alt_km": 692.2710501179563,
        "timestamp": "2025-12-08T19:31:48.484354+00:00",
        "meta_object_name": "AQUA",
        "meta_object_id": "2002-022A",
        "meta_epoch": "2025-12-08T05:57:43.407648",
        "meta_mean_motion": 14.61793408,
        "meta_eccentricity": 9.246e-05,
        "meta_inclination": 98.4031,
        "meta_ra_of_asc_node": 303.0546,
        "meta_arg_of_pericenter": 113.3765,
        "meta_mean_anomaly": 350.7525,
        "meta_ephemeris_type": 0,
        "meta_classification_type": "U",
        "meta_norad_cat_id": 27424,
        "meta_element_set_no": 999,
        "meta_rev_at_epoch": 25537,
        "meta_bstar": 0.00043677207,
        "meta_mean_motion_dot": 2.131e-05,
        "meta_mean_motion_ddot": 0,
        "tle_line1": "1 27424U 02022A   25342.24841907  .00002131  00000+0  43677-3 0  9992",
        "tle_line2": "2 27424  98.4031 303.0546 0000924 113.3765 350.7525 14.61793408255370"
      },
      "geometry": {
        "type": "Point",
        "coordinates": [
          120.97939559824947,
          -17.366202875299102
        ]
      }
    }
  ]
}